LEMUR-1                 
1 40044U 14033AL  26160.14206110  .00001964  00000+0  23038-3 0  9991
2 40044  97.7869 310.1271 0049762 104.3033 256.3715 14.85214027644273
LEMUR-2-GREENBERG       
1 42837U 17042N   26160.24502244  .00014923  00000+0  49846-3 0  9998
2 42837  97.3822 340.9084 0009302  41.4420 318.7526 15.31083199487173
LEMUR-2-ANDIS           
1 42838U 17042P   26160.03149360  .00017141  00000+0  51383-3 0  9996
2 42838  97.3684 340.8524 0008843  41.5580 318.6334 15.34518720487201
LEMUR-2-MONSON          
1 42839U 17042Q   26160.04016441  .00012024  00000+0  44510-3 0  9990
2 42839  97.4082 340.6891 0006984  34.3598 325.8092 15.27795735486927
LEMUR-2-FURIAUS         
1 42840U 17042R   26160.29858770  .00016023  00000+0  55336-3 0  9999
2 42840  97.3773 338.9352 0008523  93.3596 266.8619 15.29991812487006
LEMUR-2-PETERG          
1 42841U 17042S   26160.27155729  .00020017  00000+0  61806-3 0  9999
2 42841  97.3994 345.2919 0003887  26.5249 333.6192 15.33577952487226
LEMUR-2-DEMBITZ         
1 42842U 17042T   26160.25333780  .00014101  00000+0  48665-3 0  9998
2 42842  97.3827 341.9075 0007386  54.4394 305.7534 15.30052130487130
LEMUR-2-ZACHARY         
1 42845U 17042W   26160.24897974  .00041625  00000+0  75258-3 0  9999
2 42845  97.3612 351.7212 0003458  61.1687 298.9911 15.49576153487973
LEMUR-2-AMANDA-SVANTE   
1 48269U 21034B   26160.20397715  .00028520  00000+0  87221-3 0  9997
2 48269  97.5760 238.2823 0001345 239.8719 120.2390 15.33817792279837
LEMUR-2-SPECIAL-K       
1 48273U 21034F   26160.21253646  .00123928  00000+0  13901-2 0  9998
2 48273  97.5650 246.5066 0003335 231.9429 128.1528 15.62244163280440
LEMUR-2-EMBRIONOVIS     
1 56970U 23084AQ  26160.13123360  .00011854  00000+0  32575-3 0  9991
2 56970  97.6279 304.0237 0008282 351.6422   8.4682 15.37347804166442
LEMUR-2-DEVERILL-M-T    
1 57391U 23100F   26160.04564342  .00022326  00000+0  57305-3 0  9991
2 57391  99.4480 196.4556 0007073  75.5560 284.6463 15.39349686159992
LEMUR-2-BASS            
1 58259U 23174D   26160.23339886  .00015361  00000+0  35198-3 0  9997
2 58259  97.3844 244.8364 0007145 188.2999 171.8132 15.42830026144137
LEMUR-2-JK0903EM1407    
1 58336U 23174CJ  26160.21062916  .00024167  00000+0  41303-3 0  9997
2 58336  97.3912 250.4606 0005943 141.7829 218.3846 15.51269157144490
LEMUR-2-MJR092620       
1 58340U 23174CN  26160.19101819  .00017332  00000+0  37415-3 0  9990
2 58340  97.3967 250.0751 0007056 140.9810 219.1949 15.44580168144415
LEMUR-2-NIMBUS2000      
1 58899U 24022A   26160.08591393  .00014413  00000+0  36568-3 0  9995
2 58899  97.4121   9.9873 0010017 140.7693 219.4281 15.39734893131026
LEMUR-2-VALHALLA        
1 58900U 24022B   26160.08046430  .00013657  00000+0  35012-3 0  9997
2 58900  97.4119   9.9767 0010584 137.0301 223.1774 15.39424233131025
LEMUR-2-OBA-NI-JESU     
1 58902U 24022D   26160.13120620  .01248404  10416-2  12360-2 0  9995
2 58902  97.3705  24.7846 0004707 203.5423 156.5647 16.11545402132037
LEMUR-2-CAEL            
1 58903U 24022E   26160.09709286  .00014571  00000+0  35815-3 0  9993
2 58903  97.4105  10.9151 0009155 121.2306 238.9839 15.40708494131093
LEMUR-2-JOHNNYTRUONG    
1 59146U 24043BA  26159.36300613  .00032364  00000+0  40388-3 0  9996
2 59146  97.5374 310.5249 0004531 204.0195 156.0851 15.59808527126667
LEMUR-2-TOMATOKECHUP    
1 60471U 24149D   26160.22436574  .00009461  00000+0  27337-3 0  9990
2 60471  97.3795 242.2520 0000650 197.2873 162.8349 15.35864570100946
LEMUR-2-STELLA          
1 60533U 24149BT  26160.20500989  .00009042  00000+0  53557-3 0  9997
2 60533  97.6731 242.6264 0001856 100.1883 259.9556 15.11635538 99297
LEMUR-2-MARHISYAM       
1 60536U 24149BW  26160.18245547  .00010139  00000+0  60895-3 0  9995
2 60536  97.6875 243.0444 0003045 134.3320 225.8160 15.11094587 99275
LEMUR-2-AHMED-ASRAR     
1 60576U 24149DN  26160.22423884  .00010250  00000+0  59161-3 0  9994
2 60576  97.7000 245.1488 0002619  62.7817 297.3680 15.12533841 99365
LEMUR-2-LLOYD           
1 60577U 24149DP  26160.21845874  .00008695  00000+0  55239-3 0  9993
2 60577  97.6746 241.3443 0004568 158.0530 202.0895 15.09086279 99193
LEMUR-2-SQUIRRELCOMM    
1 60578U 24149DQ  26160.22177735  .00005305  00000+0  35767-3 0  9998
2 60578  97.6716 241.1591 0006956  83.9423 276.2596 15.07063859 99203
LEMUR-2-SIERRINI        
1 60579U 24149DR  26160.27053341  .00008720  00000+0  52890-3 0  9990
2 60579  97.6835 242.8290 0005194 188.4443 171.6699 15.10778236 99260
LEMUR-2-WILSON          
1 62694U 25009CP  26160.19790741  .00001500  00000+0  14187-3 0  9995
2 62694  97.7024 238.8031 0004512  73.9340 286.2377 14.95131657 76168
LEMUR-2-STAR-FOX        
1 62696U 25009CR  26159.96760523  .00007174  00000+0  54626-3 0  9990
2 62696  97.6944 241.6361 0002980 133.8913 226.2558 15.02380516 76329
